{
  "true": [
    {
      "fname": "Nick",
      "lname": "Sweeney",
      "tel": "(697)095-8804",
      "address": "8130 Dolor Ct",
      "city": "Ligonier",
      "state": "HI",
      "zip": "60931",
      "id": 1
    },
    {
      "fname": "Latia",
      "lname": "Graham",
      "tel": "(490)911-1171",
      "address": "4366 Nunc Rd",
      "city": "Sacramento",
      "state": "KY",
      "zip": "71682",
      "id": 2
    },
    {
      "fname": "Melissa",
      "lname": "Scheider",
      "tel": "(634)878-1781",
      "address": "9833 Vitae Dr",
      "city": "Pasco",
      "state": "RI",
      "zip": "26709",
      "id": 3
    },
    {
      "fname": "Cayla",
      "lname": "Mayne",
      "tel": "(505)068-7896",
      "address": "3669 Risus St",
      "city": "Madison",
      "state": "IL",
      "zip": "55020",
      "id": 4
    },
    {
      "fname": "Ade",
      "lname": "Mortimore",
      "tel": "(580)293-2095",
      "address": "2900 Ac Ln",
      "city": "Paducah",
      "state": "AL",
      "zip": "32932",
      "id": 5
    },
    {
      "fname": "Percy",
      "lname": "Boyd",
      "tel": "(708)687-1028",
      "address": "9342 Quis Dr",
      "city": "Bradford",
      "state": "WV",
      "zip": "23864",
      "id": 6
    },
    {
      "fname": "Cleola",
      "lname": "Amaral",
      "tel": "(346)244-4282",
      "address": "2789 Pharetra Dr",
      "city": "Brighton",
      "state": "MO",
      "zip": "62747",
      "id": 7
    },
    {
      "fname": "Hsiao-Shan",
      "lname": "Richards",
      "tel": "(225)745-6632",
      "address": "3052 Sollicitudin Ave",
      "city": "Poulsbo",
      "state": "UT",
      "zip": "27682",
      "id": 8
    },
    {
      "fname": "Leilani",
      "lname": "Tatum",
      "tel": "(277)319-6200",
      "address": "8649 Mattis Ct",
      "city": "Northwest",
      "state": "MT",
      "zip": "28186",
      "id": 9
    },
    {
      "fname": "Kerri",
      "lname": "Gay",
      "tel": "(654)738-0416",
      "address": "2755 Ante Dr",
      "city": "Littleton",
      "state": "TX",
      "zip": "29984",
      "id": 10
    },
    {
      "fname": "naveen",
      "lname": "kumar",
      "tel": "8660064668",
      "address": "ctr",
      "city": "ctr",
      "state": "ap",
      "zip": "560063",
      "id": 11
    },
    {
      "fname": "naveen",
      "lname": "kumar",
      "tel": "8660064668",
      "address": "ctr",
      "city": "ctr",
      "state": "ap",
      "zip": "560063",
      "id": 12
    },
    {
      "fname": "",
      "lname": "",
      "tel": "",
      "address": "",
      "city": "",
      "state": "",
      "zip": "",
      "id": 13
    },
    {
      "fname": "naveen",
      "lname": "kumar",
      "tel": "",
      "address": "ctr",
      "city": "ctr",
      "state": "ap",
      "zip": "560063",
      "id": 14
    },
    {
      "fname": "",
      "lname": "",
      "tel": "",
      "address": "",
      "city": "",
      "state": "",
      "zip": "",
      "id": 15
    },
    {
      "fname": "naveen",
      "lname": "kumar",
      "tel": "8660064668",
      "address": "ctr",
      "city": "ctr",
      "state": "ap",
      "zip": "560063",
      "id": 16
    },
    {
      "fname": "",
      "lname": "",
      "tel": "",
      "address": "",
      "city": "",
      "state": "",
      "zip": "",
      "id": 17
    },
    {
      "fname": "naveen",
      "lname": "kumar",
      "tel": "8660064668",
      "address": "ctr",
      "city": "ctr",
      "state": "ap",
      "zip": "560063",
      "id": 18
    },
    {
      "fname": "",
      "lname": "",
      "tel": "",
      "address": "",
      "city": "",
      "state": "",
      "zip": "",
      "id": 19
    },
    {
      "fname": "naveen",
      "lname": "kumar",
      "tel": "8660064668",
      "address": "ctr",
      "city": "ctr",
      "state": "ap",
      "zip": "560063",
      "id": 20
    },
    {
      "fname": "naveen",
      "lname": "kumar",
      "tel": "8660064668",
      "address": "ctr",
      "city": "ctr",
      "state": "ap",
      "zip": "560063",
      "id": 21
    }
  ]
}