{
  "true2": [
    {
      "fname": "Heatherrrrrrrrr",
      "lname": "Gleason",
      "tel": "(148)876-6097",
      "address": "6138 Neque Dr",
      "city": "Liberty",
      "state": "OR",
      "zip": "80437",
      "id": 2
    },
    {
      "fname": "Coralas",
      "lname": "Roazen",
      "tel": "(585)509-5108",
      "address": "1155 Amet Ct",
      "city": "Winter Park",
      "state": "TN",
      "zip": 58079,
      "id": 3
    },
    {
      "fname": "Miyanda",
      "lname": "Crompton",
      "tel": "(526)572-8234",
      "address": "3019 Quis Rd",
      "city": "Fort Bragg",
      "state": "RI",
      "zip": 39630,
      "id": 4
    },
    {
      "fname": "Marina",
      "lname": "Henderson",
      "tel": "(297)204-1370",
      "address": "9491 Dolor Ave",
      "city": "Crestview",
      "state": "VA",
      "zip": 43961,
      "id": 5
    },
    {
      "fname": "Joy",
      "lname": "Vanderlinden",
      "tel": "(777)351-6919",
      "address": "7361 Sed Ln",
      "city": "Evanston",
      "state": "NE",
      "zip": 35593,
      "id": 6
    },
    {
      "fname": "RoMeka",
      "lname": "Palterman",
      "tel": "(614)558-7233",
      "address": "2701 Ac Ln",
      "city": "Pasadena",
      "state": "WY",
      "zip": 38166,
      "id": 7
    },
    {
      "fname": "Fred",
      "lname": "Purdy",
      "tel": "(350)033-6691",
      "address": "3452 Nunc Ln",
      "city": "Birmingham",
      "state": "IL",
      "zip": 58537,
      "id": 8
    },
    {
      "fname": "Suwanto",
      "lname": "Foxen",
      "tel": "(330)644-7545",
      "address": "7783 Sed Ln",
      "city": "Saint Ann",
      "state": "MI",
      "zip": 36256,
      "id": 9
    },
    {
      "fname": "Prince",
      "lname": "Spry",
      "tel": "(759)024-8551",
      "address": "247 Sapien Ct",
      "city": "Anderson",
      "state": "CT",
      "zip": 80609,
      "id": 10
    }
  ]
}