{
  "filltext2": [
    {
      "fname": "Alana",
      "lname": "Grunert",
      "tel": "(759)316-4682",
      "address": "9937 Tortor Ct",
      "city": "Semarang",
      "state": "ID",
      "zip": 21979,
      "id": 2
    },
    {
      "fname": "Tara",
      "lname": "Key",
      "tel": "(175)324-5358",
      "address": "3707 Augue Ct",
      "city": "Mystic",
      "state": "MO",
      "zip": 19133,
      "id": 3
    },
    {
      "fname": "Roberto",
      "lname": "Kemmerling",
      "tel": "(214)198-0120",
      "address": "9725 Mattis Ave",
      "city": "Lake Crystal",
      "state": "WI",
      "zip": 75637,
      "id": 4
    },
    {
      "fname": "Gabrielle",
      "lname": "Aviles",
      "tel": "(507)446-5576",
      "address": "5489 Lacus Rd",
      "city": "Akron",
      "state": "MA",
      "zip": 15686,
      "id": 5
    },
    {
      "fname": "Leatrice",
      "lname": "Altschuler",
      "tel": "(849)495-0686",
      "address": "6944 Turpis Dr",
      "city": "Nashville",
      "state": "ND",
      "zip": 49414,
      "id": 6
    },
    {
      "fname": "Rob",
      "lname": "Thompson",
      "tel": "(606)120-0392",
      "address": "7305 Hendrerit Ln",
      "city": "Slate Hill",
      "state": "IL",
      "zip": 39320,
      "id": 7
    },
    {
      "fname": "Jacquie",
      "lname": "Troy",
      "tel": "(837)648-9316",
      "address": "7685 Placerat Rd",
      "city": "Mint Hill",
      "state": "TX",
      "zip": 69871,
      "id": 8
    },
    {
      "fname": "Alonzo",
      "lname": "Beebe",
      "tel": "(726)448-6590",
      "address": "3855 Egestas Ave",
      "city": "Thomaston",
      "state": "KS",
      "zip": 63189,
      "id": 9
    },
    {
      "fname": "James",
      "lname": "Ramati",
      "tel": "(500)983-0240",
      "address": "4926 Sit Ave",
      "city": "Lees Summit",
      "state": "AZ",
      "zip": 20720,
      "id": 10
    }
  ]
}